STARLINK-1948
1 26798C 20074BM  21325.13211477 -.00012671  00000-0 -84883-3 0  3252
2 26798  53.0522 182.6442 0001959  77.6375 140.6459 15.06416218    13
